1 48638C 21044A   21285.12518457  .00009887  00000+0  66255-3 0  2857
2 48638  53.0540 142.2205 0001896  63.1246 166.5526 15.06383613    18
1 48638C 21044A   21285.47308370  .00006896  00000+0  46202-3 0  2853
2 48638  53.0543 140.6587 0001907  63.5039 253.8761 15.06390687    13
1 48638C 21044A   21285.80122350  .00003482  00000+0  23325-3 0  2851
2 48638  53.0544 139.1857 0001910  64.6195 233.2547 15.06399218    19
1 48638C 21044A   21286.11856800  .00000619  00000+0  41431-4 0  2869
2 48638  53.0545 137.7612 0001874  64.7235 155.0733 15.06407009    14
1 48638C 21044A   21286.51650772 -.00019764  00000+0 -13244-2 0  2865
2 48638  53.0545 135.9749 0001844  64.8759 154.1654 15.06414108    14
1 48638C 21044A   21286.82995528 -.00001067  00000+0 -71499-4 0  2865
2 48638  53.0545 134.5678 0001795  64.8823  54.9560 15.06383167    10
1 48638C 21044A   21287.12955444  .00006199  00000+0  41549-3 0  2874
2 48638  53.0545 133.2230 0001806  65.6088 239.8477 15.06378552    18
1 48638C 21044A   21287.51181126  .00001871  00000+0  12539-3 0  2874
2 48638  53.0543 131.5071 0001796  66.8298 152.7411 15.06383588    10
1 48638C 21044A   21287.86160613  .00002564  00000+0  17183-3 0  2870
2 48638  53.0542 129.9369 0001812  68.0113 249.5449 15.06381086    16
1 48638C 21044A   21288.12452116  .00004711  00000+0  31574-3 0  2889
2 48638  53.0540 128.7568 0001826  68.1236 236.0027 15.06382487    13
1 48638C 21044A   21288.44373381  .00002830  00000+0  18967-3 0  2881
2 48638  53.0539 127.3239 0001829  68.8695 167.3018 15.06384862    15
1 48638C 21044A   21288.74113623 -.00002049  00000+0 -13731-3 0  2883
2 48638  53.0538 125.9888 0001835  69.5428 340.3312 15.06389191    17
1 48638C 21044A   21289.10606766  .00005119  00000+0  34302-3 0  2896
2 48638  53.0535 124.3506 0001860  69.7365 160.2544 15.06385413    13
1 48638C 21044A   21289.74665147 -.00000388  00000+0 -26007-4 0  2893
2 48638  53.0535 121.4748 0001884  70.2090  35.5917 15.06390881    10
1 48638C 21044A   21290.12901914  .00003196  00000+0  21414-3 0  2908
2 48638  53.0535 119.7582 0001921  70.3571 310.1722 15.06390721    12
1 48638C 21044A   21290.80242233  .00003255  00000+0  21810-3 0  2901
2 48638  53.0536 116.7349 0001938  71.0062   3.4247 15.06392835    14
1 48638C 21044A   21291.12622406  .00004440  00000+0  29744-3 0  2913
2 48638  53.0537 115.2813 0001959  71.0561 320.3290 15.06397351    19
1 48638C 21044A   21291.86630348  .00006787  00000+0  45465-3 0  2912
2 48638  53.0539 111.9586 0001957  72.1934  14.9022 15.06399882    15
1 48638C 21044A   21292.12119644  .00004275  00000+0  28632-3 0  2921
2 48638  53.0539 110.8143 0001965  72.5572 317.5981 15.06405895    11
1 48638C 21044A   21292.48767193 -.00019318  00000+0 -12940-2 0  2928
2 48638  53.0539 109.1690 0001892  73.3484 145.3205 15.06424835    10
1 48638C 21044A   21292.79980343 -.00018487  00000+0 -12389-2 0  2929
2 48638  53.0540 107.7677 0001860  73.0475  39.2834 15.06409903    11
1 48638C 21044A   21293.10470350  .00001742  00000+0  11678-3 0  2933
2 48638  53.0540 106.3989 0001825  73.7982 252.9440 15.06385118    11
1 48638C 21044A   21293.48299732 -.00001241  00000+0 -83201-4 0  2935
2 48638  53.0539 104.7006 0001792  74.6587 144.7005 15.06390592    12
1 48638C 21044A   21293.83316479  .00003999  00000+0  26803-3 0  2936
2 48638  53.0539 103.1286 0001800  75.5323 243.8419 15.06383190    19
1 48638C 21044A   21294.11182986  .00001473  00000+0  98734-4 0  2941
2 48638  53.0538 101.8777 0001796  75.8514 315.5543 15.06388100    18
1 48638C 21044A   21294.47882155 -.00002230  00000+0 -14944-3 0  2949
2 48638  53.0538 100.2302 0001775  76.8081 145.8918 15.06393184    10
1 48638C 21044A   21294.78471704  .00003163  00000+0  21197-3 0  2949
2 48638  53.0538  98.8570 0001781  77.0761   5.4215 15.06386114    10
1 48638C 21044A   21295.10750651  .00001155  00000+0  77388-4 0  2951
2 48638  53.0538  97.4081 0001793  77.2295 316.7219 15.06390995    13
1 48638C 21044A   21295.44861046 -.00000469  00000+0 -31395-4 0  2956
2 48638  53.0538  95.8768 0001791  77.4951   7.2880 15.06394748    12
1 48638C 21044A   21295.75731265  .00003875  00000+0  25966-3 0  2957
2 48638  53.0539  94.4910 0001790  77.7290 242.0836 15.06389516    12
1 48638C 21044A   21296.02105306  .00004604  00000+0  30850-3 0  2969
2 48638  53.0540  93.3070 0001793  77.1699 233.6991 15.06392685    18
1 48638C 21044A   21296.51474649 -.00001985  00000+0 -13298-3 0  2960
2 48638  53.0543  91.0908 0001798  77.4421  32.2171 15.06401459    10
1 48638C 21044A   21296.84601358  .00008252  00000+0  55288-3 0  2962
2 48638  53.0545  89.6038 0001799  77.0515  30.0818 15.06392590    19
1 48638C 21044A   21297.03108355  .00004700  00000+0  31489-3 0  2975
2 48638  53.0546  88.7730 0001807  76.8952 314.4298 15.06399563    19
1 48638C 21044A   21297.49478627 -.00001288  00000+0 -86243-4 0  2976
2 48638  53.0549  86.6914 0001805  77.0955 310.3000 15.06409075    13
1 48638C 21044A   21297.78151387  .00003185  00000+0  21331-3 0  2971
2 48638  53.0551  85.4043 0001787  77.4063  65.7970 15.06404975    10
1 48638C 21044A   21298.02641504 -.00017318  00000+0 -11601-2 0  2988
2 48638  53.0552  84.3050 0001756  76.5014 315.5441 15.06422799    12
1 48638C 21044A   21298.44776573 -.00012113  00000+0 -81168-3 0  2983
2 48638  53.0554  82.4134 0001687  76.5280  81.8093 15.06405584    13
1 48638C 21044A   21298.76651546  .00007720  00000+0  51731-3 0  2989
2 48638  53.0555  80.9827 0001645  76.8031  11.0926 15.06384831    18
1 48638C 21044A   21299.17124925  .00004596  00000+0  30796-3 0  2998
2 48638  53.0556  79.1660 0001623  77.0090  46.9735 15.06393620    19
1 48638C 21044A   21299.50104067 -.00001381  00000+0 -92497-4 0  2998
2 48638  53.0555  77.6855 0001603  77.6074  35.8282 15.06403078    16
1 48638C 21044A   21299.85138999 -.00004565  00000+0 -30583-3 0  2991
2 48638  53.0555  76.1130 0001542  78.0945 136.3533 15.06406148    17
1 48638C 21044A   21300.18334348 -.00018969  00000+0 -12711-2 0  3004
2 48638  53.0554  74.6229 0001503  77.7436 137.9029 15.06411327    18
1 48638C 21044A   21300.49651564 -.00004068  00000+0 -27263-3 0  3004
2 48638  53.0552  73.2170 0001436  77.7113  37.2308 15.06390030    12
1 48638C 21044A   21300.76872313  .00049327  00000+0  33081-2 0  3000
2 48638  53.0555  71.9956 0001431  75.1153  76.8537 15.06315279    18
1 48638C 21044A   21301.75519798  .00009969  00000+0  66791-3 0  3019
2 48638  53.0547  67.5668 0001410  77.3685  27.1929 15.06389595    17
1 48638C 21044A   21302.12188526 -.00017711  00000+0 -11867-2 0  3022
2 48638  53.0547  65.9207 0001357  75.9640 218.2463 15.06414230    14
1 48638C 21044A   21302.48768483 -.00010328  00000+0 -69218-3 0  3028
2 48638  53.0547  64.2784 0001306  74.3233  44.7426 15.06397307    17
1 48638C 21044A   21302.81995188  .00013400  00000+0  89798-3 0  3026
2 48638  53.0548  62.7869 0001303  73.5633  48.3952 15.06377498    10
1 48638C 21044A   21303.14235668  .00008478  00000+0  56806-3 0  3037
2 48638  53.0550  61.3395 0001298  72.3168 359.0059 15.06387830    16
1 48638C 21044A   21303.48350465 -.00001905  00000+0 -12763-3 0  3031
2 48638  53.0551  59.8079 0001328  72.0917  50.3005 15.06403432    10
1 48638C 21044A   21303.83230170  .00012810  00000+0  85886-3 0  3031
2 48638  53.0547  58.2422 0001227  69.6084 145.3712 15.06362150    16
1 48638C 21044A   21304.08058019  .00008561  00000+0  57381-3 0  3047
2 48638  53.0555  57.1276 0001178  67.2373  54.8850 15.06376129    18
1 48638C 21044A   21304.41058111  .00006080  00000+0  40739-3 0  3040
2 48638  53.0557  55.6461 0001176  66.7040  45.9910 15.06389877    14
1 48638C 21044A   21304.75086795  .00017765  00000+0  11901-2 0  3046
2 48638  53.0559  54.1186 0001180  65.9600  93.1403 15.06387715    13
1 48638C 21044A   21305.10781688 -.00009506  00000+0 -63674-3 0  3051
2 48638  53.0561  52.5162 0001202  65.5336 230.3775 15.06417174    19
1 48638C 21044A   21305.44079242 -.00010550  00000+0 -70677-3 0  3056
2 48638  53.0561  51.0214 0001236  67.0701 235.5956 15.06413271    13
1 48638C 21044A   21305.75452694 -.00001686  00000+0 -11295-3 0  3057
2 48638  53.0562  49.6131 0001276  67.4654 137.5504 15.06399755    10
1 48638C 21044A   21306.12570855 -.00012021  00000+0 -80568-3 0  3064
2 48638  53.0563  47.9469 0001299  67.4901 351.5714 15.06399035    18
1 48638C 21044A   21306.46594566  .00005143  00000+0  34471-3 0  3063
2 48638  53.0563  46.4196 0001338  68.6126  36.5891 15.06379620    19
1 48638C 21044A   21306.78956565  .00015147  00000+0  10150-2 0  3061
2 48638  53.0562  44.9671 0001343  68.6824 352.4747 15.06379260    10
1 48638C 21044A   21307.14950648  .00010397  00000+0  69655-3 0  3076
2 48638  53.0562  43.3514 0001321  68.2156 145.9775 15.06390016    17
1 48638C 21044A   21307.45085566 -.00016476  00000+0 -11040-2 0  3078
2 48638  53.0562  41.9988 0001362  68.8925 340.4197 15.06411863    15
1 48638C 21044A   21307.74495598 -.00009248  00000+0 -61981-3 0  3079
2 48638  53.0561  40.6787 0001403  69.0465 136.0732 15.06398036    15
1 48638C 21044A   21308.14912725  .00009592  00000+0  64286-3 0  3082
2 48638  53.0561  38.8645 0001437  69.2007 168.9668 15.06377448    14
1 48638C 21044A   21308.49305870  .00013208  00000+0  88482-3 0  3080
2 48638  53.0561  37.3207 0001434  68.6099 235.7291 15.06390229    10
1 48638C 21044A   21308.83909089  .00027784  00000+0  18594-2 0  3080
2 48638  53.0560  35.7674 0001477  66.7654 315.1656 15.06413594    11
1 48638C 21044A   21309.18055017 -.00003989  00000+0 -26692-3 0  3095
2 48638  53.0561  34.2346 0001469  66.5223   8.2015 15.06449874    12
1 48638C 21044A   21309.47331484 -.00054565  00000+0 -36543-2 0  3093
2 48638  53.0561  32.9204 0001398  65.0824 158.2276 15.06469557    17
1 48638C 21044A   21309.73698452 -.00077745  00000+0 -52127-2 0  3094
2 48638  53.0561  31.7367 0001397  64.2957 149.7361 15.06450284    18
